
# Worst residual: 99.31 km
# MJD 59209.000000 (2020 Dec 26  0:00)
ZTF0L5G = ZTF0L67 = B04SK17
1 89958U 00000ABP 20361.49919926  .00000000  00000-0  00000-0 0 12343
2 89958 011.7193 060.3463 2730206 281.9425 095.7666 00.98966815    07

# Worst residual: 101.77 km
# MJD 59210.000000 (2020 Dec 27  0:00)
ZTF0L5G = ZTF0L67 = B04SK17
1 89958U 00000ABP 20362.49919926  .00000000  00000-0  00000-0 0 12344
2 89958 011.7066 060.4865 2785598 282.3805 091.9836 00.98974169    02

# Worst residual: 104.23 km
# MJD 59211.000000 (2020 Dec 28  0:00)
ZTF0L5G = ZTF0L67 = B04SK17
1 89958U 00000ABP 20363.49919926  .00000000  00000-0  00000-0 0 12345
2 89958 011.7053 060.6193 2840417 282.8216 088.2049 00.98984130    01

# Worst residual: 113.39 km
# MJD 59212.000000 (2020 Dec 29  0:00)
ZTF0L5G = ZTF0L67 = B04SK17
1 89958U 00000ABP 20364.49919926  .00000000  00000-0  00000-0 0 12346
2 89958 011.7030 060.7451 2894759 283.2821 084.4069 00.98990342    01

# Worst residual: 111.66 km
# MJD 59213.000000 (2020 Dec 30  0:00)
ZTF0L5G = ZTF0L67 = B04SK17
1 89958U 00000ABP 20365.49919926  .00000000  00000-0  00000-0 0 12347
2 89958 011.6927 060.8747 2948352 283.7208 080.6299 00.99009641    04

# Worst residual: 106.55 km
# MJD 59214.000000 (2020 Dec 31  0:00)
ZTF0L5G = ZTF0L67 = B04SK17
1 89958U 00000ABP 20366.49919926  .00000000  00000-0  00000-0 0 12348
2 89958 011.7008 061.0050 3002687 284.1525 076.8359 00.99018220    02

# Worst residual: 112.84 km
# MJD 59215.000000 (2021 Jan  1  0:00)
ZTF0L5G = ZTF0L67 = B04SK17
1 89958U 00000ABP 21001.49919926  .00000000  00000-0  00000-0 0 12345
2 89958 011.6863 061.1399 3056930 284.6004 073.0336 00.99026585    01

# Worst residual: 111.12 km
# MJD 59216.000000 (2021 Jan  2  0:00)
ZTF0L5G = ZTF0L67 = B04SK17
1 89958U 00000ABP 21002.49919926  .00000000  00000-0  00000-0 0 12346
2 89958 011.6800 061.2729 3110325 285.0409 069.2286 00.99039973    09

# Worst residual: 99.31 km
# MJD 59217.000000 (2021 Jan  3  0:00)
ZTF0L5G = ZTF0L67 = B04SK17
1 89958U 00000ABP 21003.49919926  .00000000  00000-0  00000-0 0 12347
2 89958 011.6648 061.4000 3163378 285.4846 065.4219 00.99061973    07

# Worst residual: 106.35 km
# MJD 59218.000000 (2021 Jan  4  0:00)
ZTF0L5G = ZTF0L67 = B04SK17
1 89958U 00000ABP 21004.49919926  .00000000  00000-0  00000-0 0 12348
2 89958 011.6667 061.5367 3215743 285.9278 061.5973 00.99067706    07

# Worst residual: 102.79 km
# MJD 59219.000000 (2021 Jan  5  0:00)
ZTF0L5G = ZTF0L67 = B04SK17
1 89958U 00000ABP 21005.49919926  .00000000  00000-0  00000-0 0 12349
2 89958 011.6646 061.7112 3267778 286.3196 057.7812 00.99078575    08

# Worst residual: 103.00 km
# MJD 59220.000000 (2021 Jan  6  0:00)
ZTF0L5G = ZTF0L67 = B04SK17
1 89958U 00000ABP 21006.49919926  .00000000  00000-0  00000-0 0 12340
2 89958 011.6530 061.7949 3319139 286.8156 053.9500 00.99095998    08

# Worst residual: 106.64 km
# MJD 59221.000000 (2021 Jan  7  0:00)
ZTF0L5G = ZTF0L67 = B04SK17
1 89958U 00000ABP 21007.49919926  .00000000  00000-0  00000-0 0 12341
2 89958 011.6462 061.9226 3370188 287.2556 050.1257 00.99110336    04

# Worst residual: 109.94 km
# MJD 59222.000000 (2021 Jan  8  0:00)
ZTF0L5G = ZTF0L67 = B04SK17
1 89958U 00000ABP 21008.49919926  .00000000  00000-0  00000-0 0 12342
2 89958 011.6393 062.0502 3420944 287.6917 046.3020 00.99124842    09

# Worst residual: 112.61 km
# MJD 59223.000000 (2021 Jan  9  0:00)
ZTF0L5G = ZTF0L67 = B04SK17
1 89958U 00000ABP 21009.49919926  .00000000  00000-0  00000-0 0 12343
2 89958 011.6323 062.1781 3471510 288.1242 042.4781 00.99139481    00

# Worst residual: 114.40 km
# MJD 59224.000000 (2021 Jan 10  0:00)
ZTF0L5G = ZTF0L67 = B04SK17
1 89958U 00000ABP 21010.49919926  .00000000  00000-0  00000-0 0 12345
2 89958 011.6250 062.3063 3521938 288.5549 038.6523 00.99154194    07

# Worst residual: 115.21 km
# MJD 59225.000000 (2021 Jan 11  0:00)
ZTF0L5G = ZTF0L67 = B04SK17
1 89958U 00000ABP 21011.49919926  .00000000  00000-0  00000-0 0 12346
2 89958 011.6174 062.4341 3572219 288.9858 034.8229 00.99168861    04

# Worst residual: 107.59 km
# MJD 59226.000000 (2021 Jan 12  0:00)
ZTF0L5G = ZTF0L67 = B04SK17
1 89958U 00000ABP 21012.49919926  .00000000  00000-0  00000-0 0 12347
2 89958 011.6100 062.5359 3622986 289.4622 030.9691 00.99169644    05

# Worst residual: 114.15 km
# MJD 59227.000000 (2021 Jan 13  0:00)
ZTF0L5G = ZTF0L67 = B04SK17
1 89958U 00000ABP 21013.49919926  .00000000  00000-0  00000-0 0 12348
2 89958 011.6012 062.6856 3672068 289.8537 027.1502 00.99197372    03

# Worst residual: 112.61 km
# MJD 59228.000000 (2021 Jan 14  0:00)
ZTF0L5G = ZTF0L67 = B04SK17
1 89958U 00000ABP 21014.49919926  .00000000  00000-0  00000-0 0 12349
2 89958 011.5928 062.8082 3721500 290.2910 023.3082 00.99210865    02

# Worst residual: 109.08 km
# MJD 59229.000000 (2021 Jan 15  0:00)
ZTF0L5G = ZTF0L67 = B04SK17
1 89958U 00000ABP 21015.49919926  .00000000  00000-0  00000-0 0 12340
2 89958 011.5840 062.9228 3770459 290.7460 019.4575 00.99221900    05

# Worst residual: 106.50 km
# MJD 59230.000000 (2021 Jan 16  0:00)
ZTF0L5G = ZTF0L67 = B04SK17
1 89958U 00000ABP 21016.49919926  .00000000  00000-0  00000-0 0 12341
2 89958 011.5770 063.0358 3819815 291.1718 015.6248 00.99229403    05

# Worst residual: 105.71 km
# MJD 59231.000000 (2021 Jan 17  0:00)
ZTF0L5G = ZTF0L67 = B04SK17
1 89958U 00000ABP 21017.49919926  .00000000  00000-0  00000-0 0 12342
2 89958 011.5670 063.1638 3867661 291.6070 011.7728 00.99247543    09

# Worst residual: 102.77 km
# MJD 59232.000000 (2021 Jan 18  0:00)
ZTF0L5G = ZTF0L67 = B04SK17
1 89958U 00000ABP 21018.49919926  .00000000  00000-0  00000-0 0 12343
2 89958 011.5581 063.2789 3915762 292.0453 007.9258 00.99258446    03

# Worst residual: 99.38 km
# MJD 59233.000000 (2021 Jan 19  0:00)
ZTF0L5G = ZTF0L67 = B04SK17
1 89958U 00000ABP 21019.49919926  .00000000  00000-0  00000-0 0 12344
2 89958 011.5476 063.3979 3963687 292.4707 004.0851 00.99272318    04

# Worst residual: 95.77 km
# MJD 59234.000000 (2021 Jan 20  0:00)
ZTF0L5G = ZTF0L67 = B04SK17
1 89958U 00000ABP 21020.49919926  .00000000  00000-0  00000-0 0 12346
2 89958 011.5402 063.5026 4011154 292.9235 000.2274 00.99277754    09

# Worst residual: 91.11 km
# MJD 59235.000000 (2021 Jan 21  0:00)
ZTF0L5G = ZTF0L67 = B04SK17
1 89958U 00000ABP 21021.49919926  .00000000  00000-0  00000-0 0 12347
2 89958 011.5304 063.6417 4058512 293.3299 356.3799 00.99289200    05

# Worst residual: 87.11 km
# MJD 59236.000000 (2021 Jan 22  0:00)
ZTF0L5G = ZTF0L67 = B04SK17
1 89958U 00000ABP 21022.49919926  .00000000  00000-0  00000-0 0 12348
2 89958 011.5258 063.6936 4105306 293.8333 352.5186 00.99291793    05

# Worst residual: 82.55 km
# MJD 59237.000000 (2021 Jan 23  0:00)
ZTF0L5G = ZTF0L67 = B04SK17
1 89958U 00000ABP 21023.49919926  .00000000  00000-0  00000-0 0 12349
2 89958 011.5134 063.8146 4152036 294.2522 348.6659 00.99298368    06
